NORAD_CAT_ID,OBJECT_NAME,OBJECT_TYPE,EPOCH,MEAN_MOTION,ECCENTRICITY,INCLINATION,RA_OF_ASC_NODE,ARG_OF_PERICENTER,MEAN_ANOMALY,BSTAR,MEAN_MOTION_DOT,MEAN_MOTION_DDOT,TLE_LINE0,TLE_LINE1,TLE_LINE2,SEMIMAJOR_AXIS,PERIOD,APOGEE,PERIGEE,DECAYED
52670.0,STARLINK-4075,PAYLOAD,2024-06-05 04:57:38,15.0884487,0.0001284,53.2158,158.4051,91.7292,268.3847,4.3065e-05,3.98e-06,0.0,0 STARLINK-4075,1 52670U 22053Q   24157.20669887  .00000398  00000-0  43065-4 0  9999,2 52670  53.2158 158.4051 0001284  91.7292 268.3847 15.08844870113621,6917.866,95.437,540.619,538.842,0.0
52670.0,STARLINK-4075,PAYLOAD,2024-06-05 09:43:48,15.08845857,0.0001276,53.2157,157.5126,93.4379,266.6759,4.1696e-05,3.76e-06,0.0,0 STARLINK-4075,1 52670U 22053Q   24157.40541694  .00000376  00000-0  41696-4 0  9990,2 52670  53.2157 157.5126 0001276  93.4379 266.6759 15.08845857114089,6917.862,95.437,540.61,538.845,0.0
52670.0,STARLINK-4075,PAYLOAD,2024-06-06 06:23:49,15.08840446,0.0001273,53.2154,153.647,90.8301,269.2837,-3.0604e-05,-7.75e-06,0.0,0 STARLINK-4075,1 52670U 22053Q   24158.26654022 -.00000775  00000-0 -30604-4 0  9997,2 52670  53.2154 153.6470 0001273  90.8301 269.2837 15.08840446113789,6917.879,95.438,540.625,538.863,0.0
52670.0,STARLINK-4075,PAYLOAD,2024-06-07 09:25:22,15.08838689,0.0001295,53.2159,148.5926,89.6696,270.4444,4.071e-05,3.6e-06,0.0,0 STARLINK-4075,1 52670U 22053Q   24159.39261993  .00000360  00000-0  40710-4 0  9990,2 52670  53.2159 148.5926 0001295  89.6696 270.4444 15.08838689113953,6917.884,95.438,540.645,538.854,0.0
52670.0,STARLINK-4075,PAYLOAD,2024-06-07 15:46:54,15.08838945,0.0001289,53.2159,147.4031,89.3325,270.7815,4.1436e-05,3.72e-06,0.0,0 STARLINK-4075,1 52670U 22053Q   24159.65758019  .00000372  00000-0  41436-4 0  9998,2 52670  53.2159 147.4031 0001289  89.3325 270.7815 15.08838945114420,6917.884,95.438,540.64,538.857,0.0
52670.0,STARLINK-4075,PAYLOAD,2024-06-08 06:05:22,15.08843404,0.0001328,53.2165,144.7271,88.7889,271.3255,0.00012363,1.68e-05,0.0,0 STARLINK-4075,1 52670U 22053Q   24160.25373634  .00001680  00000-0  12363-3 0  9991,2 52670  53.2165 144.7271 0001328  88.7889 271.3255 15.08843404114516,6917.87,95.437,540.654,538.816,0.0
52670.0,STARLINK-4075,PAYLOAD,2024-06-08 15:37:41,15.08839472,0.0001282,53.2161,142.9434,88.254,271.8599,6.9655e-05,8.21e-06,0.0,0 STARLINK-4075,1 52670U 22053Q   24160.65118021  .00000821  00000-0  69655-4 0  9995,2 52670  53.2161 142.9434 0001282  88.2540 271.8599 15.08839472114146,6917.882,95.438,540.634,538.86,0.0
52670.0,STARLINK-4075,PAYLOAD,2024-06-09 04:20:47,15.08831336,0.0001465,53.2175,140.5664,93.9894,266.1266,-2.5496e-06,-3.29e-06,0.0,0 STARLINK-4075,1 52670U 22053Q   24161.18111012 -.00000329  00000-0 -25496-5 0  9998,2 52670  53.2175 140.5664 0001465  93.9894 266.1266 15.08831336114226,6917.907,95.438,540.785,538.758,0.0
52670.0,STARLINK-4075,PAYLOAD,2024-06-09 05:56:10,15.08832887,0.0001262,53.2161,140.2671,86.6266,273.487,2.9241e-06,-2.41e-06,0.0,0 STARLINK-4075,1 52670U 22053Q   24161.24734884 -.00000241  00000-0  29241-5 0  9997,2 52670  53.2161 140.2671 0001262  86.6266 273.4870 15.08832887114665,6917.902,95.438,540.64,538.894,0.0
52670.0,STARLINK-4075,PAYLOAD,2024-06-09 15:28:29,15.08835995,0.0001308,53.2164,138.483,87.6974,272.4168,3.2572e-05,2.3e-06,0.0,0 STARLINK-4075,1 52670U 22053Q   24161.64478758  .00000230  00000-0  32572-4 0  9993,2 52670  53.2164 138.4830 0001308  87.6974 272.4168 15.08835995114721,6917.893,95.438,540.662,538.853,0.0
52670.0,STARLINK-4075,PAYLOAD,2024-06-10 04:11:34,15.08842748,0.0001465,53.2178,136.1056,94.9182,265.1978,3.1858e-05,2.19e-06,0.0,0 STARLINK-4075,1 52670U 22053Q   24162.17470456  .00000219  00000-0  31858-4 0  9992,2 52670  53.2178 136.1056 0001465  94.9182 265.1978 15.08842748114370,6917.872,95.437,540.75,538.724,0.0
52670.0,STARLINK-4075,PAYLOAD,2024-06-10 05:46:57,15.0884046,0.000144,53.2174,135.808,92.0804,268.0353,8.4487e-05,1.057e-05,0.0,0 STARLINK-4075,1 52670U 22053Q   24162.24094438  .00001057  00000-0  84487-4 0  9999,2 52670  53.2174 135.8080 0001440  92.0804 268.0353 15.08840460114819,6917.879,95.438,540.74,538.748,0.0
52670.0,STARLINK-4075,PAYLOAD,2024-06-10 15:19:16,15.08845786,0.0001311,53.2165,134.022,82.6956,277.4185,2.7059e-05,1.43e-06,0.0,0 STARLINK-4075,1 52670U 22053Q   24162.63838182  .00000143  00000-0  27059-4 0  9991,2 52670  53.2165 134.0220 0001311  82.6956 277.4185 15.08845786114875,6917.863,95.437,540.635,538.821,0.0
52670.0,STARLINK-4075,PAYLOAD,2024-06-11 04:02:21,15.08836704,0.000126,53.2154,131.6428,83.3351,276.7785,7.7675e-05,9.48e-06,0.0,0 STARLINK-4075,1 52670U 22053Q   24163.16830815  .00000948  00000-0  77675-4 0  9997,2 52670  53.2154 131.6428 0001260  83.3351 276.7785 15.08836704114526,6917.89,95.438,540.627,538.884,0.0
52670.0,STARLINK-4075,PAYLOAD,2024-06-11 07:13:07,15.0884069,0.0001328,53.216,131.0482,83.2683,276.846,0.00011094,1.478e-05,0.0,0 STARLINK-4075,1 52670U 22053Q   24163.30078535  .00001478  00000-0  11094-3 0  9997,2 52670  53.2160 131.0482 0001328  83.2683 276.8460 15.08840690114978,6917.878,95.438,540.662,538.825,0.0
52670.0,STARLINK-4075,PAYLOAD,2024-06-12 03:53:08,15.08846828,0.0001574,53.2175,127.1796,83.5888,276.5284,7.6949e-05,9.37e-06,0.0,0 STARLINK-4075,1 52670U 22053Q   24164.16190227  .00000937  00000-0  76949-4 0  9995,2 52670  53.2175 127.1796 0001574  83.5888 276.5284 15.08846828114678,6917.86,95.437,540.813,538.636,0.0
52670.0,STARLINK-4075,PAYLOAD,2024-06-12 15:00:51,15.0883373,0.0001716,53.2166,125.1017,83.6198,276.499,-3.1704e-05,-7.93e-06,0.0,0 STARLINK-4075,1 52670U 22053Q   24164.62559360 -.00000793  00000-0 -31704-4 0  9995,2 52670  53.2166 125.1017 0001716  83.6198 276.4990 15.08833730114744,6917.9,95.438,540.952,538.577,0.0
52670.0,STARLINK-4075,PAYLOAD,2024-06-13 06:54:42,15.08838416,0.0001324,53.2171,122.126,94.7067,265.4077,9.5944e-06,-1.35e-06,0.0,0 STARLINK-4075,1 52670U 22053Q   24165.28799014 -.00000135  00000-0  95944-5 0  9996,2 52670  53.2171 122.1260 0001324  94.7067 265.4077 15.08838416115279,6917.885,95.438,540.666,538.834,0.0
52670.0,STARLINK-4075,PAYLOAD,2024-06-14 01:59:19,15.08842708,0.0001312,53.2174,118.5574,100.934,259.18,-1.4359e-05,-5.16e-06,0.0,0 STARLINK-4075,1 52670U 22053Q   24166.08286886 -.00000516  00000-0 -14359-4 0  9997,2 52670  53.2174 118.5574 0001312 100.9340 259.1800 15.08842708115396,6917.872,95.437,540.645,538.829,0.0
52670.0,STARLINK-4075,PAYLOAD,2024-06-14 21:03:57,15.08837838,0.0001286,53.2174,114.9895,99.1185,260.9952,0.00012199,1.654e-05,0.0,0 STARLINK-4075,1 52670U 22053Q   24166.87774962  .00001654  00000-0  12199-3 0  9992,2 52670  53.2174 114.9895 0001286  99.1185 260.9952 15.08837838115518,6917.887,95.438,540.642,538.862,0.0
52670.0,STARLINK-4075,PAYLOAD,2024-06-15 12:57:48,15.08844025,0.0001141,53.217,112.0176,89.983,270.1293,0.00012846,1.757e-05,0.0,0 STARLINK-4075,1 52670U 22053Q   24167.54014702  .00001757  00000-0  12846-3 0  9999,2 52670  53.2170 112.0176 0001141  89.9830 270.1293 15.08844025115617,6917.868,95.437,540.522,538.944,0.0
52670.0,STARLINK-4075,PAYLOAD,2024-06-15 19:19:21,15.08837534,0.0001271,53.2195,110.8331,92.3269,267.7869,0.0001002,1.307e-05,0.0,0 STARLINK-4075,1 52670U 22053Q   24167.80511290  .00001307  00000-0  10020-3 0  9995,2 52670  53.2195 110.8331 0001271  92.3269 267.7869 15.08837534115653,6917.888,95.438,540.632,538.874,0.0
52670.0,STARLINK-4075,PAYLOAD,2024-06-16 12:48:36,15.08836195,0.0001405,53.2184,107.5595,94.754,265.3613,4.7919e-05,4.75e-06,0.0,0 STARLINK-4075,1 52670U 22053Q   24168.53375731  .00000475  00000-0  47919-4 0  9997,2 52670  53.2184 107.5595 0001405  94.7540 265.3613 15.08836195115768,6917.892,95.438,540.729,538.785,0.0
52670.0,STARLINK-4075,PAYLOAD,2024-06-17 12:39:23,15.08841749,0.000144,53.2188,103.0996,93.0504,267.0653,2.5139e-06,-2.48e-06,0.0,0 STARLINK-4075,1 52670U 22053Q   24169.52735732 -.00000248  00000-0  25139-5 0  9998,2 52670  53.2188 103.0996 0001440  93.0504 267.0653 15.08841749115910,6917.875,95.437,540.736,538.744,0.0
52670.0,STARLINK-4075,PAYLOAD,2024-06-18 12:30:10,15.08843727,0.0001508,53.2181,98.6379,89.6498,270.4667,8.4877e-05,1.063e-05,0.0,0 STARLINK-4075,1 52670U 22053Q   24170.52095587  .00001063  00000-0  84877-4 0  9995,2 52670  53.2181  98.6379 0001508  89.6498 270.4667 15.08843727116063,6917.869,95.437,540.777,538.691,0.0
52670.0,STARLINK-4075,PAYLOAD,2024-06-19 02:48:38,15.08848971,0.0001365,53.217,95.9589,91.8433,268.2715,0.00015074,2.112e-05,0.0,0 STARLINK-4075,1 52670U 22053Q   24171.11711070  .00002112  00000-0  15074-3 0  9991,2 52670  53.2170  95.9589 0001365  91.8433 268.2715 15.08848971115726,6917.853,95.437,540.662,538.774,0.0
52670.0,STARLINK-4075,PAYLOAD,2024-06-19 12:20:57,15.08839932,0.0001584,53.2184,94.1752,84.5546,275.5627,6.4454e-05,7.38e-06,0.0,0 STARLINK-4075,1 52670U 22053Q   24171.51455811  .00000738  00000-0  64454-4 0  9992,2 52670  53.2184  94.1752 0001584  84.5546 275.5627 15.08839932115787,6917.881,95.438,540.841,538.65,0.0
52670.0,STARLINK-4075,PAYLOAD,2024-06-20 12:11:44,15.08844001,0.0001523,53.2186,89.7141,90.2973,269.8194,-1.3222e-05,-4.98e-06,0.0,0 STARLINK-4075,1 52670U 22053Q   24172.50815758 -.00000498  00000-0 -13222-4 0  9994,2 52670  53.2186  89.7141 0001523  90.2973 269.8194 15.08844001116365,6917.868,95.437,540.787,538.68,0.0
52670.0,STARLINK-4075,PAYLOAD,2024-06-20 21:44:03,15.08840225,0.0001442,53.2167,87.9324,89.4762,270.6395,2.4322e-05,9.9e-07,0.0,0 STARLINK-4075,1 52670U 22053Q   24172.90559934  .00000099  00000-0  24322-4 0  9997,2 52670  53.2167  87.9324 0001442  89.4762 270.6395 15.08840225116427,6917.88,95.438,540.742,538.747,0.0
52670.0,STARLINK-4075,PAYLOAD,2024-06-20 23:19:26,15.08841816,0.0001456,53.2178,87.6347,92.1358,267.9801,3.2689e-05,2.32e-06,0.0,0 STARLINK-4075,1 52670U 22053Q   24172.97183808  .00000232  00000-0  32689-4 0  9991,2 52670  53.2178  87.6347 0001456  92.1358 267.9801 15.08841816116000,6917.875,95.437,540.747,538.733,0.0
